[{"OBJECT_NAME":"STARLINK-31356","OBJECT_ID":"2024-031D","EPOCH":"2026-03-09T22:57:02.865888","MEAN_MOTION":15.30192166,"ECCENTRICITY":0.00012234,"INCLINATION":53.1588,"RA_OF_ASC_NODE":267.6032,"ARG_OF_PERICENTER":80.6378,"MEAN_ANOMALY":279.4761,"EPHEMERIS_TYPE":0,"CLASSIFICATION_TYPE":"U","NORAD_CAT_ID":58968,"ELEMENT_SET_NO":999,"REV_AT_EPOCH":11696,"BSTAR":1.3017387e-5,"MEAN_MOTION_DOT":2.6e-7,"MEAN_MOTION_DDOT":0},{"OBJECT_NAME":"PEGASUS DEB","OBJECT_ID":"1994-029AG","EPOCH":"2026-03-09T11:16:42.963744","MEAN_MOTION":15.37636263,"ECCENTRICITY":0.0031206,"INCLINATION":82.0362,"RA_OF_ASC_NODE":86.2933,"ARG_OF_PERICENTER":155.6019,"MEAN_ANOMALY":204.671,"EPHEMERIS_TYPE":0,"CLASSIFICATION_TYPE":"U","NORAD_CAT_ID":23986,"ELEMENT_SET_NO":999,"REV_AT_EPOCH":61542,"BSTAR":0.00061808813,"MEAN_MOTION_DOT":0.00023279,"MEAN_MOTION_DDOT":0}]
